{"type": "FeatureCollection", "features": [ {"type": "Feature", "properties": {"norad_id": 31934, "name": "FENGYUN 1C DEB", "group": "fengyun-1c-debris", "lat": 46.21748034156364, "lon": -144.66054043332016, "alt_km": 562.6635594277423, "timestamp": "2025-12-03T22:42:32.919316+00:00", "meta": {"OBJECT_NAME": "FENGYUN 1C DEB", "OBJECT_ID": "1999-025CMK", "EPOCH": "2025-12-03T09:21:19.989216", "MEAN_MOTION": 15.05410401, "ECCENTRICITY": 0.0038234, "INCLINATION": 98.8814, "RA_OF_ASC_NODE": 25.3093, "ARG_OF_PERICENTER": 263.8722, "MEAN_ANOMALY": 95.8144, "EPHEMERIS_TYPE": 0, "CLASSIFICATION_TYPE": "U", "NORAD_CAT_ID": 31934, "ELEMENT_SET_NO": 999, "REV_AT_EPOCH": 60702, "BSTAR": 0.0037072, "MEAN_MOTION_DOT": 0.00054358, "MEAN_MOTION_DDOT": 0}, "tle": {"line1": "1 31934U 99025CMK 25337.38981469  .00054358  00000+0  37072-2 0  9998", "line2": "2 31934  98.8814  25.3093 0038234 263.8722  95.8144 15.05410401607029"}}, "geometry": {"type": "Point", "coordinates": [-144.66054043332016, 46.21748034156364]}}, {"type": "Feature", "properties": {"norad_id": 31937, "name": "FENGYUN 1C DEB", "group": "fengyun-1c-debris", "lat": -11.514104057151664, "lon": 68.13389704799852, "alt_km": 534.8642640620201, "timestamp": "2025-12-03T22:42:32.919324+00:00", "meta": {"OBJECT_NAME": "FENGYUN 1C DEB", "OBJECT_ID": "1999-025CMN", "EPOCH": "2025-12-02T12:38:21.327072", "MEAN_MOTION": 14.7792273, "ECCENTRICITY": 0.01632725, "INCLINATION": 99.2568, "RA_OF_ASC_NODE": 64.6002, "ARG_OF_PERICENTER": 329.3517, "MEAN_ANOMALY": 29.8228, "EPHEMERIS_TYPE": 0, "CLASSIFICATION_TYPE": "U", "NORAD_CAT_ID": 31937, "ELEMENT_SET_NO": 999, "REV_AT_EPOCH": 65918, "BSTAR": 0.00089596607, "MEAN_MOTION_DOT": 7.992e-05, "MEAN_MOTION_DDOT": 0}, "tle": {"line1": "1 31937U 99025CMN 25336.52663573  .00007992  00000+0  89597-3 0  9991", "line2": "2 31937  99.2568  64.6002 0163272 329.3517  29.8228 14.77922730659185"}}, "geometry": {"type": "Point", "coordinates": [68.13389704799852, -11.514104057151664]}}, {"type": "Feature", "properties": {"norad_id": 31938, "name": "FENGYUN 1C DEB", "group": "fengyun-1c-debris", "lat": 70.12409807419061, "lon": -146.05699425436023, "alt_km": 470.03052706730705, "timestamp": "2025-12-03T22:42:32.919333+00:00", "meta": {"OBJECT_NAME": "FENGYUN 1C DEB", "OBJECT_ID": "1999-025CMP", "EPOCH": "2025-12-03T01:21:45.744480", "MEAN_MOTION": 14.95446744, "ECCENTRICITY": 0.01536631, "INCLINATION": 98.9311, "RA_OF_ASC_NODE": 7.1451, "ARG_OF_PERICENTER": 97.2097, "MEAN_ANOMALY": 264.6618, "EPHEMERIS_TYPE": 0, "CLASSIFICATION_TYPE": "U", "NORAD_CAT_ID": 31938, "ELEMENT_SET_NO": 999, "REV_AT_EPOCH": 98991, "BSTAR": 0.00050086382, "MEAN_MOTION_DOT": 6.944e-05, "MEAN_MOTION_DDOT": 0}, "tle": {"line1": "1 31938U 99025CMP 25337.05677945  .00006944  00000+0  50086-3 0  9996", "line2": "2 31938  98.9311   7.1451 0153663  97.2097 264.6618 14.95446744989910"}}, "geometry": {"type": "Point", "coordinates": [-146.05699425436023, 70.12409807419061]}}, {"type": "Feature", "properties": {"norad_id": 31944, "name": "FENGYUN 1C DEB", "group": "fengyun-1c-debris", "lat": 72.75606037441388, "lon": -23.29052050370547, "alt_km": 818.1418903144659, "timestamp": "2025-12-03T22:42:32.919342+00:00", "meta": {"OBJECT_NAME": "FENGYUN 1C DEB", "OBJECT_ID": "1999-025CMV", "EPOCH": "2025-12-03T04:21:09.092736", "MEAN_MOTION": 14.11759082, "ECCENTRICITY": 0.01516662, "INCLINATION": 99.2029, "RA_OF_ASC_NODE": 124.438, "ARG_OF_PERICENTER": 30.7997, "MEAN_ANOMALY": 147.0056, "EPHEMERIS_TYPE": 0, "CLASSIFICATION_TYPE": "U", "NORAD_CAT_ID": 31944, "ELEMENT_SET_NO": 999, "REV_AT_EPOCH": 62775, "BSTAR": 0.00074621414, "MEAN_MOTION_DOT": 1.469e-05, "MEAN_MOTION_DDOT": 0}, "tle": {"line1": "1 31944U 99025CMV 25337.18135524  .00001469  00000+0  74621-3 0  9997", "line2": "2 31944  99.2029 124.4380 0151666  30.7997 147.0056 14.11759082627754"}}, "geometry": {"type": "Point", "coordinates": [-23.29052050370547, 72.75606037441388]}}, {"type": "Feature", "properties": {"norad_id": 31945, "name": "FENGYUN 1C DEB", "group": "fengyun-1c-debris", "lat": 13.929839826744244, "lon": -123.59354846849973, "alt_km": 860.413049612881, "timestamp": "2025-12-03T22:42:32.919351+00:00", "meta": {"OBJECT_NAME": "FENGYUN 1C DEB", "OBJECT_ID": "1999-025CMW", "EPOCH": "2025-11-29T11:26:27.358656", "MEAN_MOTION": 14.20676291, "ECCENTRICITY": 0.00604085, "INCLINATION": 98.9644, "RA_OF_ASC_NODE": 49.6315, "ARG_OF_PERICENTER": 325.8129, "MEAN_ANOMALY": 33.9164, "EPHEMERIS_TYPE": 0, "CLASSIFICATION_TYPE": "U", "NORAD_CAT_ID": 31945, "ELEMENT_SET_NO": 999, "REV_AT_EPOCH": 95007, "BSTAR": 0.0013352556, "MEAN_MOTION_DOT": 2.885e-05, "MEAN_MOTION_DDOT": 0}, "tle": {"line1": "1 31945U 99025CMW 25333.47670554  .00002885  00000+0  13353-2 0  9990", "line2": "2 31945  98.9644  49.6315 0060408 325.8129  33.9164 14.20676291950075"}}, "geometry": {"type": "Point", "coordinates": [-123.59354846849973, 13.929839826744244]}}, {"type": "Feature", "properties": {"norad_id": 31946, "name": "FENGYUN 1C DEB", "group": "fengyun-1c-debris", "lat": 0.1960833724618091, "lon": -141.79253648396366, "alt_km": 855.0840061981571, "timestamp": "2025-12-03T22:42:32.919360+00:00", "meta": {"OBJECT_NAME": "FENGYUN 1C DEB", "OBJECT_ID": "1999-025CMX", "EPOCH": "2025-12-03T10:00:15.109056", "MEAN_MOTION": 14.16359084, "ECCENTRICITY": 0.0083398, "INCLINATION": 98.8988, "RA_OF_ASC_NODE": 37.6477, "ARG_OF_PERICENTER": 76.7615, "MEAN_ANOMALY": 284.2845, "EPHEMERIS_TYPE": 0, "CLASSIFICATION_TYPE": "U", "NORAD_CAT_ID": 31946, "ELEMENT_SET_NO": 999, "REV_AT_EPOCH": 63876, "BSTAR": 0.0017748, "MEAN_MOTION_DOT": 3.603e-05, "MEAN_MOTION_DDOT": 0}, "tle": {"line1": "1 31946U 99025CMX 25337.41684154  .00003603  00000+0  17748-2 0  9991", "line2": "2 31946  98.8988  37.6477 0083398  76.7615 284.2845 14.16359084638766"}}, "geometry": {"type": "Point", "coordinates": [-141.79253648396366, 0.1960833724618091]}}, {"type": "Feature", "properties": {"norad_id": 31948, "name": "FENGYUN 1C DEB", "group": "fengyun-1c-debris", "lat": -6.741169870903773, "lon": -143.40537531167018, "alt_km": 814.449114531506, "timestamp": "2025-12-03T22:42:32.919370+00:00", "meta": {"OBJECT_NAME": "FENGYUN 1C DEB", "OBJECT_ID": "1999-025CMZ", "EPOCH": "2025-12-02T23:07:31.547712", "MEAN_MOTION": 14.28182343, "ECCENTRICITY": 0.00237776, "INCLINATION": 99.3956, "RA_OF_ASC_NODE": 36.6595, "ARG_OF_PERICENTER": 50.177, "MEAN_ANOMALY": 126.8754, "EPHEMERIS_TYPE": 0, "CLASSIFICATION_TYPE": "U", "NORAD_CAT_ID": 31948, "ELEMENT_SET_NO": 999, "REV_AT_EPOCH": 94888, "BSTAR": 0.0019459046, "MEAN_MOTION_DOT": 4.812e-05, "MEAN_MOTION_DDOT": 0}, "tle": {"line1": "1 31948U 99025CMZ 25336.96355958  .00004812  00000+0  19459-2 0  9993", "line2": "2 31948  99.3956  36.6595 0023777  50.1770 126.8754 14.28182343948884"}}, "geometry": {"type": "Point", "coordinates": [-143.40537531167018, -6.741169870903773]}}, {"type": "Feature", "properties": {"norad_id": 31949, "name": "FENGYUN 1C DEB", "group": "fengyun-1c-debris", "lat": 7.949657356037334, "lon": -37.4100029137459, "alt_km": 895.1143075109621, "timestamp": "2025-12-03T22:42:32.919379+00:00", "meta": {"OBJECT_NAME": "FENGYUN 1C DEB", "OBJECT_ID": "1999-025CNA", "EPOCH": "2025-11-23T05:03:27.897984", "MEAN_MOTION": 14.1687356, "ECCENTRICITY": 0.01252295, "INCLINATION": 98.5419, "RA_OF_ASC_NODE": 313.4803, "ARG_OF_PERICENTER": 269.0533, "MEAN_ANOMALY": 89.6292, "EPHEMERIS_TYPE": 0, "CLASSIFICATION_TYPE": "U", "NORAD_CAT_ID": 31949, "ELEMENT_SET_NO": 999, "REV_AT_EPOCH": 95228, "BSTAR": 0.00041514195, "MEAN_MOTION_DOT": 8.56e-06, "MEAN_MOTION_DDOT": 0}, "tle": {"line1": "1 31949U 99025CNA 25327.21073956  .00000856  00000+0  41514-3 0  9999", "line2": "2 31949  98.5419 313.4803 0125229 269.0533  89.6292 14.16873560952288"}}, "geometry": {"type": "Point", "coordinates": [-37.4100029137459, 7.949657356037334]}}, {"type": "Feature", "properties": {"norad_id": 31952, "name": "FENGYUN 1C DEB", "group": "fengyun-1c-debris", "lat": 81.03842278544901, "lon": 4.900038320337444, "alt_km": 759.3239170414126, "timestamp": "2025-12-03T22:42:32.919388+00:00", "meta": {"OBJECT_NAME": "FENGYUN 1C DEB", "OBJECT_ID": "1999-025CND", "EPOCH": "2025-12-02T01:41:17.244672", "MEAN_MOTION": 14.53424312, "ECCENTRICITY": 0.0114361, "INCLINATION": 98.9555, "RA_OF_ASC_NODE": 92.4345, "ARG_OF_PERICENTER": 324.9229, "MEAN_ANOMALY": 34.4471, "EPHEMERIS_TYPE": 0, "CLASSIFICATION_TYPE": "U", "NORAD_CAT_ID": 31952, "ELEMENT_SET_NO": 999, "REV_AT_EPOCH": 97054, "BSTAR": 0.00045789715, "MEAN_MOTION_DOT": 2.02e-05, "MEAN_MOTION_DDOT": 0}, "tle": {"line1": "1 31952U 99025CND 25336.07033848  .00002020  00000+0  45790-3 0  9998", "line2": "2 31952  98.9555  92.4345 0114361 324.9229  34.4471 14.53424312970544"}}, "geometry": {"type": "Point", "coordinates": [4.900038320337444, 81.03842278544901]}}, {"type": "Feature", "properties": {"norad_id": 31955, "name": "FENGYUN 1C DEB", "group": "fengyun-1c-debris", "lat": 15.724641227866616, "lon": 36.29098102493522, "alt_km": 660.492020646715, "timestamp": "2025-12-03T22:42:32.919397+00:00", "meta": {"OBJECT_NAME": "FENGYUN 1C DEB", "OBJECT_ID": "1999-025CNG", "EPOCH": "2025-12-01T10:04:40.844352", "MEAN_MOTION": 14.63569936, "ECCENTRICITY": 0.00433189, "INCLINATION": 99.2819, "RA_OF_ASC_NODE": 210.8104, "ARG_OF_PERICENTER": 216.6012, "MEAN_ANOMALY": 324.4178, "EPHEMERIS_TYPE": 0, "CLASSIFICATION_TYPE": "U", "NORAD_CAT_ID": 31955, "ELEMENT_SET_NO": 999, "REV_AT_EPOCH": 96391, "BSTAR": 0.0022136753, "MEAN_MOTION_DOT": 0.00011605, "MEAN_MOTION_DDOT": 0}, "tle": {"line1": "1 31955U 99025CNG 25335.41991718  .00011605  00000+0  22137-2 0  9995", "line2": "2 31955  99.2819 210.8104 0043318 216.6012 324.4178 14.63569936963915"}}, "geometry": {"type": "Point", "coordinates": [36.29098102493522, 15.724641227866616]}}]}